[{"OBJECT_NAME":"STARLINK-4167","OBJECT_ID":"2022-076AZ","EPOCH":"2026-03-09T07:03:03.178656","MEAN_MOTION":15.08837836,"ECCENTRICITY":0.0001432,"INCLINATION":53.2172,"RA_OF_ASC_NODE":75.8984,"ARG_OF_PERICENTER":90.6476,"MEAN_ANOMALY":269.468,"EPHEMERIS_TYPE":0,"CLASSIFICATION_TYPE":"U","NORAD_CAT_ID":53033,"ELEMENT_SET_NO":999,"REV_AT_EPOCH":20306,"BSTAR":2.6145994e-5,"MEAN_MOTION_DOT":1.28e-6,"MEAN_MOTION_DDOT":0},{"OBJECT_NAME":"PSLV DEB","OBJECT_ID":"2001-049NA","EPOCH":"2026-03-08T15:04:56.759808","MEAN_MOTION":15.08740413,"ECCENTRICITY":0.00254054,"INCLINATION":98.314,"RA_OF_ASC_NODE":131.3874,"ARG_OF_PERICENTER":357.4644,"MEAN_ANOMALY":2.6449,"EPHEMERIS_TYPE":0,"CLASSIFICATION_TYPE":"U","NORAD_CAT_ID":27582,"ELEMENT_SET_NO":999,"REV_AT_EPOCH":27774,"BSTAR":0.00086862236,"MEAN_MOTION_DOT":0.0001368,"MEAN_MOTION_DDOT":0}]
